{"type": "FeatureCollection", "features": [ {"type": "Feature", "properties": {"norad_id": 58655, "name": "BEIDOU-3 M26 (C48)", "group": "beidou", "lat": 54.43329099439945, "lon": 175.5963390408359, "alt_km": 21530.1554735828, "timestamp": "2025-12-06T11:28:11.328379+00:00", "meta": {"OBJECT_NAME": "BEIDOU-3 M26 (C48)", "OBJECT_ID": "2023-207B", "EPOCH": "2025-12-03T02:34:45.227424", "MEAN_MOTION": 1.86231091, "ECCENTRICITY": 0.00034591, "INCLINATION": 55.5782, "RA_OF_ASC_NODE": 68.9139, "ARG_OF_PERICENTER": 250.5367, "MEAN_ANOMALY": 109.429, "EPHEMERIS_TYPE": 0, "CLASSIFICATION_TYPE": "U", "NORAD_CAT_ID": 58655, "ELEMENT_SET_NO": 999, "REV_AT_EPOCH": 1317, "BSTAR": 0, "MEAN_MOTION_DOT": -5e-07, "MEAN_MOTION_DDOT": 0}, "tle": {"line1": "1 58655U 23207B   25337.10746791 -.00000050  00000+0  00000+0 0  9992", "line2": "2 58655  55.5782  68.9139 0003459 250.5367 109.4290  1.86231091 13176"}}, "geometry": {"type": "Point", "coordinates": [175.5963390408359, 54.43329099439945]}}, {"type": "Feature", "properties": {"norad_id": 61186, "name": "BEIDOU-3 M25 (C47)", "group": "beidou", "lat": -29.096353744785933, "lon": 152.1690489604724, "alt_km": 21528.698487957154, "timestamp": "2025-12-06T11:28:11.328391+00:00", "meta": {"OBJECT_NAME": "BEIDOU-3 M25 (C47)", "OBJECT_ID": "2024-168B", "EPOCH": "2025-12-05T05:13:31.135872", "MEAN_MOTION": 1.86229714, "ECCENTRICITY": 0.00054853, "INCLINATION": 54.6489, "RA_OF_ASC_NODE": 308.9806, "ARG_OF_PERICENTER": 294.5401, "MEAN_ANOMALY": 157.173, "EPHEMERIS_TYPE": 0, "CLASSIFICATION_TYPE": "U", "NORAD_CAT_ID": 61186, "ELEMENT_SET_NO": 999, "REV_AT_EPOCH": 817, "BSTAR": 0, "MEAN_MOTION_DOT": -7e-07, "MEAN_MOTION_DDOT": 0}, "tle": {"line1": "1 61186U 24168B   25339.21772148 -.00000070  00000+0  00000+0 0  9993", "line2": "2 61186  54.6489 308.9806 0005485 294.5401 157.1730  1.86229714  8171"}}, "geometry": {"type": "Point", "coordinates": [152.1690489604724, -29.096353744785933]}}, {"type": "Feature", "properties": {"norad_id": 61187, "name": "BEIDOU-3 M27 (C49)", "group": "beidou", "lat": -6.870701634578242, "lon": -56.00685033388268, "alt_km": 21523.395103751507, "timestamp": "2025-12-06T11:28:11.328402+00:00", "meta": {"OBJECT_NAME": "BEIDOU-3 M27 (C49)", "OBJECT_ID": "2024-168C", "EPOCH": "2025-12-05T15:32:20.690016", "MEAN_MOTION": 1.86229864, "ECCENTRICITY": 0.00022695, "INCLINATION": 54.6438, "RA_OF_ASC_NODE": 308.9492, "ARG_OF_PERICENTER": 330.8039, "MEAN_ANOMALY": 183.9653, "EPHEMERIS_TYPE": 0, "CLASSIFICATION_TYPE": "U", "NORAD_CAT_ID": 61187, "ELEMENT_SET_NO": 999, "REV_AT_EPOCH": 565, "BSTAR": 0, "MEAN_MOTION_DOT": -7e-07, "MEAN_MOTION_DDOT": 0}, "tle": {"line1": "1 61187U 24168C   25339.64746169 -.00000070  00000+0  00000+0 0  9995", "line2": "2 61187  54.6438 308.9492 0002269 330.8039 183.9653  1.86229864  5652"}}, "geometry": {"type": "Point", "coordinates": [-56.00685033388268, -6.870701634578242]}}]}